[{"OBJECT_NAME":"STARLINK-1911","OBJECT_ID":"2020-074L","EPOCH":"2026-03-10T00:00:02.999808","MEAN_MOTION":15.7196626,"ECCENTRICITY":0.00010753,"INCLINATION":53.0465,"RA_OF_ASC_NODE":276.9224,"ARG_OF_PERICENTER":50.1756,"MEAN_ANOMALY":209.8955,"EPHEMERIS_TYPE":0,"CLASSIFICATION_TYPE":"U","NORAD_CAT_ID":46749,"ELEMENT_SET_NO":999,"REV_AT_EPOCH":580,"BSTAR":0.00055147557,"MEAN_MOTION_DOT":0.00073486,"MEAN_MOTION_DDOT":0},{"OBJECT_NAME":"STARLINK-11384 [DTC]","OBJECT_ID":"2024-220A","EPOCH":"2026-03-09T23:22:23.139552","MEAN_MOTION":15.70873185,"ECCENTRICITY":0.00016364,"INCLINATION":42.9991,"RA_OF_ASC_NODE":41.7382,"ARG_OF_PERICENTER":250.0721,"MEAN_ANOMALY":109.997,"EPHEMERIS_TYPE":0,"CLASSIFICATION_TYPE":"U","NORAD_CAT_ID":62088,"ELEMENT_SET_NO":999,"REV_AT_EPOCH":7509,"BSTAR":0.0017703106,"MEAN_MOTION_DOT":0.00233529,"MEAN_MOTION_DDOT":0}]
